NORAD_CAT_ID,OBJECT_NAME,OBJECT_TYPE,EPOCH,MEAN_MOTION,ECCENTRICITY,INCLINATION,RA_OF_ASC_NODE,ARG_OF_PERICENTER,MEAN_ANOMALY,BSTAR,MEAN_MOTION_DOT,MEAN_MOTION_DDOT,TLE_LINE0,TLE_LINE1,TLE_LINE2,SEMIMAJOR_AXIS,PERIOD,APOGEE,PERIGEE,DECAYED
53569.0,STARLINK-4582,PAYLOAD,2024-07-13 20:06:03,15.08838779,0.0001394,53.2164,244.9475,86.5356,273.5795,4.309e-05,3.98e-06,0.0,0 STARLINK-4582,1 53569U 22101AU  24195.83753837  .00000398  00000-0  43090-4 0  9999,2 53569  53.2164 244.9475 0001394  86.5356 273.5795 15.08838779105286,6917.884,95.438,540.713,538.785,0.0
53569.0,STARLINK-4582,PAYLOAD,2024-07-14 10:24:31,15.08840796,0.0001346,53.2164,242.2725,95.1677,264.9469,5.5722e-05,5.99e-06,0.0,0 STARLINK-4582,1 53569U 22101AU  24196.43369763  .00000599  00000-0  55722-4 0  9995,2 53569  53.2164 242.2725 0001346  95.1677 264.9469 15.08840796106043,6917.878,95.438,540.674,538.812,0.0
53569.0,STARLINK-4582,PAYLOAD,2024-07-14 19:56:50,15.08840758,0.0001337,53.2163,240.4884,93.0138,267.1007,2.9889e-05,1.88e-06,0.0,0 STARLINK-4582,1 53569U 22101AU  24196.83113872  .00000188  00000-0  29889-4 0  9996,2 53569  53.2163 240.4884 0001337  93.0138 267.1007 15.08840758106105,6917.878,95.438,540.668,538.818,0.0
53569.0,STARLINK-4582,PAYLOAD,2024-07-15 11:50:41,15.08841274,0.0001409,53.2167,237.5155,97.3108,262.8044,9.912e-05,1.29e-05,0.0,0 STARLINK-4582,1 53569U 22101AU  24197.49353918  .00001290  00000-0  99120-4 0  9996,2 53569  53.2167 237.5155 0001409  97.3108 262.8044 15.08841274105534,6917.876,95.437,540.716,538.767,0.0
53569.0,STARLINK-4582,PAYLOAD,2024-07-15 19:47:37,15.08840207,0.0001354,53.2164,236.0274,87.9595,272.1552,6.322e-05,7.18e-06,0.0,0 STARLINK-4582,1 53569U 22101AU  24197.82474027  .00000718  00000-0  63220-4 0  9994,2 53569  53.2164 236.0274 0001354  87.9595 272.1552 15.08840207106254,6917.88,95.438,540.681,538.808,0.0
53569.0,STARLINK-4582,PAYLOAD,2024-07-16 11:41:28,15.08844866,0.0001533,53.2168,233.0513,94.9648,265.1519,7.1347e-05,8.48e-06,0.0,0 STARLINK-4582,1 53569U 22101AU  24198.48713726  .00000848  00000-0  71347-4 0  9992,2 53569  53.2168 233.0513 0001533  94.9648 265.1519 15.08844866106358,6917.866,95.437,540.791,538.67,0.0
53569.0,STARLINK-4582,PAYLOAD,2024-07-17 01:59:57,15.08830079,0.0001549,53.2166,230.3744,87.4025,272.7144,0.00019358,2.793e-05,0.0,0 STARLINK-4582,1 53569U 22101AU  24199.08330303  .00002793  00000-0  19358-3 0  9999,2 53569  53.2166 230.3744 0001549  87.4025 272.7144 15.08830079105779,6917.911,95.438,540.847,538.704,0.0
53569.0,STARLINK-4582,PAYLOAD,2024-07-17 08:21:29,15.088443,0.0001382,53.215,229.1869,87.7715,272.3436,0.0001015,1.328e-05,0.0,0 STARLINK-4582,1 53569U 22101AU  24199.34825557  .00001328  00000-0  10150-3 0  9992,2 53569  53.2150 229.1869 0001382  87.7715 272.3436 15.08844300105817,6917.867,95.437,540.688,538.776,0.0
53569.0,STARLINK-4582,PAYLOAD,2024-07-18 11:23:03,15.08839489,0.0001449,53.2157,224.1317,92.9035,267.2122,-2.2467e-06,-3.24e-06,0.0,0 STARLINK-4582,1 53569U 22101AU  24200.47434306 -.00000324  00000-0 -22467-5 0  9990,2 53569  53.2157 224.1317 0001449  92.9035 267.2122 15.08839489106654,6917.882,95.438,540.749,538.745,0.0
53569.0,STARLINK-4582,PAYLOAD,2024-07-19 11:13:50,15.08841095,0.0001434,53.215,219.6711,92.9609,267.1547,4.9427e-05,4.99e-06,0.0,0 STARLINK-4582,1 53569U 22101AU  24201.46794043  .00000499  00000-0  49427-4 0  9992,2 53569  53.2150 219.6711 0001434  92.9609 267.1547 15.08841095106808,6917.877,95.437,540.734,538.75,0.0
53569.0,STARLINK-4582,PAYLOAD,2024-07-20 04:43:04,15.08837429,0.0001446,53.2155,216.399,93.7311,266.3847,7.9917e-05,9.84e-06,0.0,0 STARLINK-4582,1 53569U 22101AU  24202.19658304  .00000984  00000-0  79917-4 0  9998,2 53569  53.2155 216.3990 0001446  93.7311 266.3847 15.08837429106246,6917.888,95.438,540.754,538.753,0.0
53569.0,STARLINK-4582,PAYLOAD,2024-07-20 07:53:50,15.08838908,0.000144,53.2155,215.8046,92.9716,267.1441,8.8893e-05,1.127e-05,0.0,0 STARLINK-4582,1 53569U 22101AU  24202.32906218  .00001127  00000-0  88893-4 0  9996,2 53569  53.2155 215.8046 0001440  92.9716 267.1441 15.08838908106934,6917.884,95.438,540.745,538.753,0.0
53569.0,STARLINK-4582,PAYLOAD,2024-07-20 17:26:10,15.08835703,0.0001453,53.2155,214.0206,92.6134,267.5024,5.4173e-05,5.74e-06,0.0,0 STARLINK-4582,1 53569U 22101AU  24202.72650632  .00000574  00000-0  54173-4 0  9995,2 53569  53.2155 214.0206 0001453  92.6134 267.5024 15.08835703106995,6917.894,95.438,540.764,538.753,0.0
53569.0,STARLINK-4582,PAYLOAD,2024-07-21 04:33:52,15.08833771,0.0001559,53.2163,211.9397,93.7286,266.3885,-1.2137e-05,-4.81e-06,0.0,0 STARLINK-4582,1 53569U 22101AU  24203.19019127 -.00000481  00000-0 -12137-4 0  9998,2 53569  53.2163 211.9397 0001559  93.7286 266.3885 15.08833771106397,6917.899,95.438,540.843,538.686,0.0
53569.0,STARLINK-4582,PAYLOAD,2024-07-21 10:55:25,15.08834693,0.0001493,53.2159,210.7505,93.3573,266.759,-7.5772e-06,-4.09e-06,0.0,0 STARLINK-4582,1 53569U 22101AU  24203.45515110 -.00000409  00000-0 -75772-5 0  9995,2 53569  53.2159 210.7505 0001493  93.3573 266.7590 15.08834693107103,6917.897,95.438,540.794,538.729,0.0
53569.0,STARLINK-4582,PAYLOAD,2024-07-22 10:46:11,15.08841332,0.0001471,53.216,206.2903,95.6153,264.5007,4.8533e-05,4.85e-06,0.0,0 STARLINK-4582,1 53569U 22101AU  24204.44874672  .00000485  00000-0  48533-4 0  9992,2 53569  53.2160 206.2903 0001471  95.6153 264.5007 15.08841332106580,6917.876,95.437,540.759,538.724,0.0
53569.0,STARLINK-4582,PAYLOAD,2024-07-22 23:29:16,15.08838073,0.0001389,53.2159,203.9109,95.1515,264.9635,0.00011317,1.514e-05,0.0,0 STARLINK-4582,1 53569U 22101AU  24204.97866700  .00001514  00000-0  11317-3 0  9996,2 53569  53.2159 203.9109 0001389  95.1515 264.9635 15.08838073107338,6917.886,95.438,540.712,538.79,0.0
53569.0,STARLINK-4582,PAYLOAD,2024-07-23 09:01:35,15.08843502,0.0001378,53.2158,202.1265,95.463,264.652,0.0001246,1.696e-05,0.0,0 STARLINK-4582,1 53569U 22101AU  24205.37610413  .00001696  00000-0  12460-3 0  9990,2 53569  53.2158 202.1265 0001378  95.4630 264.6520 15.08843502107399,6917.87,95.437,540.688,538.781,0.0
53569.0,STARLINK-4582,PAYLOAD,2024-07-24 05:41:37,15.08833528,0.0001543,53.2166,198.2604,92.4229,267.6939,-2.3157e-05,-6.56e-06,0.0,0 STARLINK-4582,1 53569U 22101AU  24206.23723700 -.00000656  00000-0 -23157-4 0  9993,2 53569  53.2166 198.2604 0001543  92.4229 267.6939 15.08833528106859,6917.9,95.438,540.833,538.698,0.0
53569.0,STARLINK-4582,PAYLOAD,2024-07-25 03:57:00,15.08846364,0.0001559,53.2169,194.0972,97.454,262.6629,5.3941e-05,5.71e-06,0.0,0 STARLINK-4582,1 53569U 22101AU  24207.16458600  .00000571  00000-0  53941-4 0  9998,2 53569  53.2169 194.0972 0001559  97.4540 262.6629 15.08846364106990,6917.861,95.437,540.804,538.647,0.0
53569.0,STARLINK-4582,PAYLOAD,2024-07-25 05:32:23,15.08845268,0.0001541,53.2171,193.7999,98.8544,261.2623,4.2589e-05,3.9e-06,0.0,0 STARLINK-4582,1 53569U 22101AU  24207.23082673  .00000390  00000-0  42589-4 0  9994,2 53569  53.2171 193.7999 0001541  98.8544 261.2623 15.08845268107675,6917.864,95.437,540.795,538.663,0.0
53569.0,STARLINK-4582,PAYLOAD,2024-07-25 08:43:09,15.08843028,0.0001571,53.2173,193.2059,95.6708,264.4463,2.777e-05,1.54e-06,0.0,0 STARLINK-4582,1 53569U 22101AU  24207.36330863  .00000154  00000-0  27770-4 0  9998,2 53569  53.2173 193.2059 0001571  95.6708 264.4463 15.08843028107690,6917.871,95.437,540.823,538.649,0.0
53569.0,STARLINK-4582,PAYLOAD,2024-07-26 08:33:55,15.08852334,0.0001482,53.2153,188.7452,74.4844,285.6312,0.0003743,5.676e-05,0.0,0 STARLINK-4582,1 53569U 22101AU  24208.35688704  .00005676  00000-0  37430-3 0  9995,2 53569  53.2153 188.7452 0001482  74.4844 285.6312 15.08852334107172,6917.843,95.437,540.733,538.682,0.0
53569.0,STARLINK-4582,PAYLOAD,2024-07-26 22:52:26,15.08821208,0.0001788,53.2164,186.0721,63.4315,296.686,-0.00016608,-2.929e-05,0.0,0 STARLINK-4582,1 53569U 22101AU  24208.95308763 -.00002929  00000-0 -16608-3 0  9999,2 53569  53.2164 186.0721 0001788  63.4315 296.6860 15.08821208107934,6917.938,95.439,541.04,538.566,0.0
53569.0,STARLINK-4582,PAYLOAD,2024-07-27 03:38:37,15.08803844,0.0001664,53.2161,185.1798,50.8159,309.2981,-0.0002989,-5.037e-05,0.0,0 STARLINK-4582,1 53569U 22101AU  24209.15182516 -.00005037  00000-0 -29890-3 0  9998,2 53569  53.2161 185.1798 0001664  50.8159 309.2981 15.08803844107294,6917.991,95.44,541.007,538.705,0.0
53569.0,STARLINK-4582,PAYLOAD,2024-07-27 05:13:59,15.08817142,0.0001399,53.2168,184.875,146.8456,213.2624,-0.00026471,-4.496e-05,0.0,0 STARLINK-4582,1 53569U 22101AU  24209.21805185 -.00004496  00000-0 -26471-3 0  9999,2 53569  53.2168 184.8750 0001399 146.8456 213.2624 15.08817142107302,6917.95,95.439,540.783,538.847,0.0
53569.0,STARLINK-4582,PAYLOAD,2024-07-28 05:04:45,15.08848768,0.0001371,53.216,180.4186,85.2502,274.8647,-6.561e-05,-1.332e-05,0.0,0 STARLINK-4582,1 53569U 22101AU  24210.21163831 -.00001332  00000-0 -65610-4 0  9991,2 53569  53.2160 180.4186 0001371  85.2502 274.8647 15.08848768107459,6917.854,95.437,540.667,538.77,0.0
53569.0,STARLINK-4582,PAYLOAD,2024-07-28 22:34:00,15.08838021,0.0001296,53.2162,177.1477,78.0646,282.0492,0.00035411,5.352e-05,0.0,0 STARLINK-4582,1 53569U 22101AU  24210.94027942  .00005352  00000-0  35411-3 0  9992,2 53569  53.2162 177.1477 0001296  78.0646 282.0492 15.08838021108239,6917.886,95.438,540.648,538.855,0.0
53569.0,STARLINK-4582,PAYLOAD,2024-07-29 04:55:32,15.08856561,0.0001403,53.2158,175.9597,83.7198,276.3954,0.00064558,0.00010006,0.0,0 STARLINK-4582,1 53569U 22101AU  24211.20524056  .00010006  00000-0  64558-3 0  9996,2 53569  53.2158 175.9597 0001403  83.7198 276.3954 15.08856561108270,6917.83,95.437,540.665,538.724,0.0
53569.0,STARLINK-4582,PAYLOAD,2024-07-29 20:49:23,15.08865813,0.0001285,53.2148,172.9879,91.5903,268.5237,-0.00038734,-6.451e-05,0.0,0 STARLINK-4582,1 53569U 22101AU  24211.86762879 -.00006451  00000-0 -38734-3 0  9993,2 53569  53.2148 172.9879 0001285  91.5903 268.5237 15.08865813107702,6917.801,95.436,540.555,538.778,0.0
